ONEWEB-0549             
1 56051U 23043F   24298.74116942  .00000150  00000+0  33173-3 0  9993
2 56051  87.9354   3.5758 0001951  83.7445 276.3911 13.21827194 78901
ONEWEB-0550             
1 56052U 23043G   24298.72855250  .00000087  00000+0  17866-3 0  9994
2 56052  87.9351   3.5812 0001958 105.1358 254.9992 13.21827380 78907
ONEWEB-0551             
1 56053U 23043H   24298.75868827  .00000211  00000+0  52649-3 0  9999
2 56053  87.9126  18.7454 0001980  95.2590 264.8766 13.15548039 77452
ONEWEB-0552             
1 56054U 23043J   24298.72225140 -.00000034  00000+0 -11418-3 0  9996
2 56054  87.9350   3.5921 0002166 100.8916 259.2462 13.21823978 78902
ONEWEB-0553             
1 56055U 23043K   24298.65395782 -.00000009  00000+0 -57400-4 0  9993
2 56055  87.9130 348.4081 0001523  94.1305 266.0000 13.16592136 79953
ONEWEB-0554             
1 56056U 23043L   24298.64128668 -.00000056  00000+0 -18072-3 0  9993
2 56056  87.9134 348.4350 0002281 112.1701 247.9672 13.16591524 79931
ONEWEB-0555             
1 56057U 23043M   24298.67929494  .00000007  00000+0 -15484-4 0  9993
2 56057  87.9130 348.3966 0001188 109.9123 250.2136 13.16593811 79941
ONEWEB-0557             
1 56058U 23043N   24298.69353990  .00000052  00000+0  10189-3 0  9993
2 56058  87.9131 348.4185 0001384 131.0457 229.0794 13.16594040 79940
